SBIRS GEO-5 (USA 315)   
1 48618U 21042A   24359.53280396  .00000140  00000+0  00000+0 0  9998
2 48618   5.8546 326.1491 0002529 307.9569  32.1600  1.00273185 13340
FENGYUN 4B              
1 48808U 21047A   24359.64469542 -.00000305  00000+0  00000+0 0  9992
2 48808   0.0223  26.5395 0010528  38.7912   4.9531  1.00269354 13155
SXM-8                   
1 48838U 21049A   24359.44027613 -.00000181  00000+0  00000+0 0  9996
2 48838   0.0214  43.0009 0004224   5.2424 118.5476  1.00270550 13180
TIANLIAN 1-05           
1 49011U 21063A   24359.53202203  .00000132  00000+0  00000+0 0  9991
2 49011   0.2064  72.0319 0005067 194.4031  35.4299  1.00271778 12661
STAR ONE D2             
1 49055U 21069A   24359.32271485 -.00000240  00000+0  00000+0 0  9991
2 49055   0.0176  16.3391 0002073 226.5138 256.5615  1.00268894 12529
EUTELSAT QUANTUM        
1 49056U 21069B   24359.41646770  .00000150  00000+0  00000+0 0  9994
2 49056   0.0154  22.3846 0002568 254.1722  14.4937  1.00273166 12518
ZHONGXING-2E            
1 49062U 21071A   24359.61389638 -.00000267  00000+0  00000+0 0  9993
2 49062   0.0096  54.1373 0001627 217.4727 141.0623  1.00274046 12629
TJS-7                   
1 49115U 21077A   24359.52271903 -.00000099  00000+0  00000+0 0  9996
2 49115   0.0399 271.4445 0002023 310.8160 319.9906  1.00272815  4159
CHINASAT 9B             
1 49125U 21080A   24359.64126795 -.00000288  00000+0  00000+0 0  9992
2 49125   0.0349  86.4457 0003107 163.6728 175.8060  1.00272872 12231
SHIJIAN-21 (SJ-21)      
1 49330U 21094A   24359.67941307 -.00000200  00000+0  00000+0 0  9996
2 49330  10.1694  43.8513 0076615  36.9881  46.9367  1.00265844 11845
SES-17                  
1 49332U 21095A   24359.51534096 -.00000247  00000+0  00000+0 0  9996
2 49332   0.0122  26.7691 0000975 247.7328 297.4509  1.00270083 12441
SYRACUSE 4A             
1 49333U 21095B   24359.41646770  .00000159  00000+0  00000+0 0  9990
2 49333   0.0182  24.4295 0001557 243.0666  21.3643  1.00270832 12540
QZS-1R                  
1 49336U 21096A   24358.58104837 -.00000266  00000+0  00000+0 0  9994
2 49336  36.3390  87.6683 0755407 271.4768  77.3454  1.00258352 11583
ZHONGXING-1D            
1 49505U 21114A   24356.11351642 -.00000326  00000+0  00000+0 0  9995
2 49505   0.0525 238.1090 0002818   7.7634  15.2268  1.00266079 11384
STPSAT-6                
1 49817U 21118A   24359.43506330 -.00000021  00000+0  00000+0 0  9991
2 49817   0.0240 285.4148 0002028  13.6183 199.3595  1.00271511 11150
LDPE-1                  
1 49818U 21118B   24359.44844292 -.00000239  00000+0  00000+0 0  9996
2 49818   2.8466  85.4472 0000389 275.1253 210.0885  0.99510444 11229
EXPRESS AMU-7           
1 50001U 21123A   24359.19597878 -.00000220  00000+0  00000+0 0  9995
2 50001   0.0186 332.6260 0000566 241.6467  94.4912  1.00270705 11128
EXPRESS AMU-3           
1 50002U 21123B   24359.45457491 -.00000297  00000+0  00000+0 0  9995
2 50002   0.0206 348.6665 0000628 204.5169 166.8149  1.00269974  1619
TIANLIAN 2-02           
1 50005U 21124A   24359.55257828  .00000011  00000+0  00000+0 0  9995
2 50005   0.1793 273.8672 0004328   3.6430 185.9554  1.00271273 11192
TURKSAT 5B              
1 50212U 21126A   24358.20743672  .00000166  00000+0  00000+0 0  9996
2 50212   0.0662 347.4089 0004800 315.9986 265.5237  1.00271346 10863
INMARSAT 6-F1           
1 50319U 21128A   24359.59146476 -.00000148  00000+0  00000+0 0  9999
2 50319   0.0176 307.1689 0000111 166.1412 276.9758  1.00271052 10847
SHIYAN 12 01 (SY-12 01) 
1 50321U 21129A   24359.69432045 -.00000320  00000+0  00000+0 0  9996
2 50321   2.2787  87.7651 0003196 247.9516 121.2084  1.00085733 11104
SHIYAN 12 02 (SY-12 02) 
1 50322U 21129B   24359.67876331  .00000172  00000+0  00000+0 0  9999
2 50322   2.2788  87.7841 0000619 208.4507  78.1486  1.00467617 11107
TJS-9                   
1 50574U 21135A   24359.63887006 -.00000274  00000+0  00000+0 0  9996
2 50574   0.0331 116.7741 0001521 129.3778 214.7512  1.00271950 11024
USA 324                 
1 51280U 22006A   24352.69503264 -.00000294  00000+0  00000+0 0  9991
2 51280   0.1793  84.6502 0002408 176.2116 210.2007  1.00408107  1926
USA 325                 
1 51281U 22006B   24352.94619841  .00000131  00000+0  00000+0 0  9998
2 51281   0.6171  86.6204 0001375 153.3882 211.4335  1.00158268  1928
GOES 18                 
1 51850U 22021A   24359.42522575  .00000121  00000+0  00000+0 0  9993
2 51850   0.0283 143.6992 0000461 188.3196 137.4916  1.00272132  1184
ZHONGXING-6D            
1 52255U 22038A   24358.39611753 -.00000334  00000+0  00000+0 0  9990
2 52255   0.0161  47.2781 0002891 227.3364  85.3525  1.00267179 10007
NILESAT 301             
1 52817U 22061A   24359.47965977 -.00000033  00000+0  00000+0 0  9996
2 52817   0.0488 337.8394 0004265 313.7611 327.5955  1.00273885  9325
CMS-02 (GSAT 24)        
1 52903U 22067A   24359.59146476 -.00000141  00000+0  00000+0 0  9996
2 52903   0.0596 267.3129 0004747 355.9843 126.2595  1.00272832  9194
MEASAT 3D               
1 52904U 22067B   24359.58591017 -.00000217  00000+0  00000+0 0  9995
2 52904   0.0511 305.0027 0003168 351.4084  99.6069  1.00269020  9232
SES-22                  
1 52933U 22071A   24359.46640536  .00000129  00000+0  00000+0 0  9991
2 52933   0.0179 353.3873 0002873 282.1657 206.8328  1.00274141  2117
WFOV (USA 332)          
1 52940U 22073A   24359.59555255 -.00000339  00000+0  00000+0 0  9992
2 52940   2.3190  85.6150 0001758 149.0196 192.6643  1.00273484  8955
TIANLIAN 2-03           
1 53100U 22078A   24358.71301213  .00000094  00000+0  00000+0 0  9999
2 53100   0.7393 279.1784 0002994   2.1848  78.6072  1.00273270  9144
SBIRS GEO-6 (USA 336)   
1 53355U 22092A   24359.60435968 -.00000267  00000+0  00000+0 0  9994
2 53355   4.2610 311.8555 0002334 322.2810 176.0548  1.00271738  8822
EUTELSAT KONNECT VHTS   
1 53765U 22110A   24359.52906809  .00000042  00000+0  00000+0 0  9998
2 53765   0.0553  94.4023 0002598 170.8272  21.4848  1.00272540  1429
ZHONGXING-1E            
1 53813U 22112A   24359.59146476 -.00000125  00000+0  00000+0 0  9990
2 53813   0.0382 147.6855 0004829 128.7394 111.4831  1.00273304  8432
SES-20                  
1 53960U 22123A   24357.65068131 -.00000083  00000+0  00000+0 0  9994
2 53960   0.0166  36.1149 0001001  42.8290 143.8895  1.00269147  8106
SES-21                  
1 53961U 22123B   24359.57098441  .00000094  00000+0  00000+0 0  9996
2 53961   0.0390  21.1513 0000895 251.7415 255.3177  1.00266314  1800
GALAXY 33 (G-33)        
1 54026U 22128A   24359.48175062  .00000103  00000+0  00000+0 0  9990
2 54026   0.0130 313.3217 0001728 313.2446 227.3608  1.00272954  8336
GALAXY 34 (G-34)        
1 54027U 22128B   24359.46368659  .00000083  00000+0  00000+0 0  9992
2 54027   0.0235 351.3501 0001617 281.2973 218.8295  1.00271968  8507
ANGOSAT 2               
1 54033U 22131A   24359.51507748  .00000160  00000+0  00000+0 0  9999
2 54033   0.0359 132.3677 0001053 162.7400   6.8446  1.00272481  8058
EUTELSAT HOTBIRD 13F    
1 54048U 22134A   24359.53124010  .00000111  00000+0  00000+0 0  9993
2 54048   0.0676 291.0632 0002201  70.3289 296.3896  1.00271730  7965
LDPE-2                  
1 54219U 22144A   24359.51412463 -.00000198  00000+0  00000+0 0  9990
2 54219   4.2721  64.7370 0000532 341.4706 159.0529  0.99899673  6402
EUTELSAT HOTBIRD 13G    
1 54225U 22146A   24359.53124010  .00000111  00000+0  00000+0 0  9993
2 54225   0.0578 247.6892 0001896 290.5997 119.4975  1.00271013  2051
ZHONGXING-19            
1 54230U 22148A   24359.55750025 -.00000055  00000+0  00000+0 0  9992
2 54230   0.0155 290.1974 0008706 321.9605 205.4823  1.00272465  7970
GALAXY 31 (G-31)        
1 54243U 22153A   24359.43315192  .00000037  00000+0  00000+0 0  9990
2 54243   0.0155 283.4900 0001406 358.5036 206.3878  1.00272681  1729
GALAXY 32 (G-32)        
1 54244U 22153B   24357.42549437 -.00000157  00000+0  00000+0 0  9993
2 54244   0.0092 341.6053 0002017 335.7857 196.2495  1.00271421  7711
EUTELSAT 10B            
1 54259U 22157A   24359.36993911  .00000092  00000+0  00000+0 0  9995
2 54259   0.0561  92.1415 0000415  87.9106  56.5206  1.00270054  7619
GALAXY 35 (G-35)        
1 54741U 22170A   24359.49860241 -.00000138  00000+0  00000+0 0  9991
2 54741   0.0144 305.3198 0002074 331.2767 263.3106  1.00271791  7481
GALAXY 36 (G-36)        
1 54742U 22170B   24358.93931771 -.00000162  00000+0  00000+0 0  9994
2 54742   0.0187  28.0340 0000800  30.8049 283.2702  1.00269496  7355
METEOSAT-12 (MTG-I1)    
1 54743U 22170C   24359.46854806  .00000017  00000+0  00000+0 0  9995
2 54743   0.6049  39.0236 0001382 229.8095 352.9769  1.00271566  7563
SHIJIAN-23 (SJ-23)      
1 55131U 23002A   24359.67157440 -.00000256  00000+0  00000+0 0  9991
2 55131   2.3259  85.2757 0002050 201.4675 184.8962  1.00441779  7282
APSTAR-6E               
1 55239U 23005A   24350.81805205 -.00000311  00000+0  00000+0 0  9991
2 55239   0.0604  98.4638 0002019 359.2639  55.7248  1.00268108 13194
USA 342                 
1 55263U 23008A   24356.96116744  .00000152  00000+0  00000+0 0  9998
2 55263   0.0147  15.7776 0000458 316.9700 128.0966  1.00267300  7098
LDPE-3A                 
1 55264U 23008B   24359.63757919 -.00000259  00000+0  00000+0 0  9990
2 55264   0.8262  87.7356 0002061 196.9383 174.1763  1.00441703  6416
ELEKTRO-L 4             
1 55506U 23016A   24359.28029837 -.00000039  00000+0  00000+0 0  9996
2 55506   0.0596 229.4758 0002372  27.6880 102.8140  1.00251037  6916
AMAZONAS NEXUS          
1 55508U 23017A   24359.32271485 -.00000258  00000+0  00000+0 0  9995
2 55508   0.0382  38.9403 0002556 271.8947 197.6567  1.00269447  1635
ZHONGXING-26            
1 55686U 23023A   24359.38799406 -.00000330  00000+0  00000+0 0  9994
2 55686   0.0745  77.6379 0001511 288.6883 351.8807  1.00273138  6810
